1 27424U 02022A   11302.40417792 -.00003579  00000-0 -78528-3 0  1076
2 27424 098.2092 241.1030 0001966 075.8023 284.3766 14.57077525504614